{
  "type": "FeatureCollection",
  "features": [
    {
      "type": "Feature",
      "properties": {
        "norad_id": 46734,
        "name": "IRIDIUM 33 DEB",
        "group": "iridium-33-debris",
        "lat": -52.0547182432775,
        "lon": -3.806931248812303,
        "alt_km": 732.7873711842412,
        "timestamp": "2025-12-16T23:36:36.584071+00:00",
        "meta_object_name": "IRIDIUM 33 DEB",
        "meta_object_id": "1997-051ABR",
        "meta_epoch": "2025-12-16T07:16:35.707584",
        "meta_mean_motion": 14.41911222,
        "meta_eccentricity": 0.00381217,
        "meta_inclination": 86.2633,
        "meta_ra_of_asc_node": 1.2995,
        "meta_arg_of_pericenter": 323.6514,
        "meta_mean_anomaly": 53.8246,
        "meta_ephemeris_type": 0,
        "meta_classification_type": "U",
        "meta_norad_cat_id": 46734,
        "meta_element_set_no": 999,
        "meta_rev_at_epoch": 63062,
        "meta_bstar": 0.00075238,
        "meta_mean_motion_dot": 2.503e-05,
        "meta_mean_motion_ddot": 0,
        "tle_line1": "1 46734U 97051ABR 25350.30319106  .00002503  00000+0  75238-3 0  9991",
        "tle_line2": "2 46734  86.2633   1.2995 0038121 323.6514  53.8246 14.41911222630621"
      },
      "geometry": {
        "type": "Point",
        "coordinates": [
          -3.806931248812303,
          -52.0547182432775
        ]
      }
    },
    {
      "type": "Feature",
      "properties": {
        "norad_id": 46965,
        "name": "IRIDIUM 33 DEB",
        "group": "iridium-33-debris",
        "lat": 6.441173301538719,
        "lon": -20.769091994951733,
        "alt_km": 685.6280176248338,
        "timestamp": "2025-12-16T23:36:36.584082+00:00",
        "meta_object_name": "IRIDIUM 33 DEB",
        "meta_object_id": "1997-051ABX",
        "meta_epoch": "2025-12-13T10:45:20.165184",
        "meta_mean_motion": 14.60307321,
        "meta_eccentricity": 0.00180716,
        "meta_inclination": 86.336,
        "meta_ra_of_asc_node": 340.3836,
        "meta_arg_of_pericenter": 330.9129,
        "meta_mean_anomaly": 180.178,
        "meta_ephemeris_type": 0,
        "meta_classification_type": "U",
        "meta_norad_cat_id": 46965,
        "meta_element_set_no": 999,
        "meta_rev_at_epoch": 62278,
        "meta_bstar": 0.0013493066,
        "meta_mean_motion_dot": 6.553e-05,
        "meta_mean_motion_ddot": 0,
        "tle_line1": "1 46965U 97051ABX 25347.44815006  .00006553  00000+0  13493-2 0  9991",
        "tle_line2": "2 46965  86.3360 340.3836 0018071 330.9129 180.1780 14.60307321622786"
      },
      "geometry": {
        "type": "Point",
        "coordinates": [
          -20.769091994951733,
          6.441173301538719
        ]
      }
    },
    {
      "type": "Feature",
      "properties": {
        "norad_id": 46971,
        "name": "IRIDIUM 33 DEB",
        "group": "iridium-33-debris",
        "lat": -56.06446282378795,
        "lon": -34.340467624673124,
        "alt_km": 577.4679589168154,
        "timestamp": "2025-12-16T23:36:36.584092+00:00",
        "meta_object_name": "IRIDIUM 33 DEB",
        "meta_object_id": "1997-051ACD",
        "meta_epoch": "2025-12-16T06:30:44.080992",
        "meta_mean_motion": 14.9823489,
        "meta_eccentricity": 0.00028594,
        "meta_inclination": 86.3389,
        "meta_ra_of_asc_node": 331.4549,
        "meta_arg_of_pericenter": 295.1976,
        "meta_mean_anomaly": 128.6572,
        "meta_ephemeris_type": 0,
        "meta_classification_type": "U",
        "meta_norad_cat_id": 46971,
        "meta_element_set_no": 999,
        "meta_rev_at_epoch": 64283,
        "meta_bstar": 0.0019357039,
        "meta_mean_motion_dot": 0.00023062,
        "meta_mean_motion_ddot": 0,
        "tle_line1": "1 46971U 97051ACD 25350.27134353  .00023062  00000+0  19357-2 0  9991",
        "tle_line2": "2 46971  86.3389 331.4549 0002859 295.1976 128.6572 14.98234890642830"
      },
      "geometry": {
        "type": "Point",
        "coordinates": [
          -34.340467624673124,
          -56.06446282378795
        ]
      }
    },
    {
      "type": "Feature",
      "properties": {
        "norad_id": 46974,
        "name": "IRIDIUM 33 DEB",
        "group": "iridium-33-debris",
        "lat": -20.180783748998273,
        "lon": -75.21420349833858,
        "alt_km": 688.1222388033793,
        "timestamp": "2025-12-16T23:36:36.584102+00:00",
        "meta_object_name": "IRIDIUM 33 DEB",
        "meta_object_id": "1997-051ACG",
        "meta_epoch": "2025-12-14T14:09:41.074272",
        "meta_mean_motion": 14.44439168,
        "meta_eccentricity": 0.00956816,
        "meta_inclination": 86.2983,
        "meta_ra_of_asc_node": 104.4675,
        "meta_arg_of_pericenter": 181.0289,
        "meta_mean_anomaly": 179.0732,
        "meta_ephemeris_type": 0,
        "meta_classification_type": "U",
        "meta_norad_cat_id": 46974,
        "meta_element_set_no": 999,
        "meta_rev_at_epoch": 57535,
        "meta_bstar": 0.0034715296,
        "meta_mean_motion_dot": 0.00012692,
        "meta_mean_motion_ddot": 0,
        "tle_line1": "1 46974U 97051ACG 25348.59005873  .00012692  00000+0  34715-2 0  9992",
        "tle_line2": "2 46974  86.2983 104.4675 0095681 181.0289 179.0732 14.44439168575351"
      },
      "geometry": {
        "type": "Point",
        "coordinates": [
          -75.21420349833858,
          -20.180783748998273
        ]
      }
    },
    {
      "type": "Feature",
      "properties": {
        "norad_id": 46979,
        "name": "IRIDIUM 33 DEB",
        "group": "iridium-33-debris",
        "lat": 4.357299307365617,
        "lon": -133.6971854631795,
        "alt_km": 584.7729271292992,
        "timestamp": "2025-12-16T23:36:36.584112+00:00",
        "meta_object_name": "IRIDIUM 33 DEB",
        "meta_object_id": "1997-051ACM",
        "meta_epoch": "2025-12-08T11:38:51.411264",
        "meta_mean_motion": 14.88966671,
        "meta_eccentricity": 0.00280118,
        "meta_inclination": 86.3345,
        "meta_ra_of_asc_node": 50.5282,
        "meta_arg_of_pericenter": 237.8713,
        "meta_mean_anomaly": 121.9794,
        "meta_ephemeris_type": 0,
        "meta_classification_type": "U",
        "meta_norad_cat_id": 46979,
        "meta_element_set_no": 999,
        "meta_rev_at_epoch": 35365,
        "meta_bstar": 0.0048738532,
        "meta_mean_motion_dot": 0.00046401,
        "meta_mean_motion_ddot": 0,
        "tle_line1": "1 46979U 97051ACM 25342.48531726  .00046401  00000+0  48739-2 0  9996",
        "tle_line2": "2 46979  86.3345  50.5282 0028011 237.8713 121.9794 14.88966671353652"
      },
      "geometry": {
        "type": "Point",
        "coordinates": [
          -133.6971854631795,
          4.357299307365617
        ]
      }
    }
  ]
}